<?xml version="1.0" encoding="UTF-8"?>
<ndm xmlns:xsi="http://www.w3.org/2001/XMLSchema-instance" xsi:noNamespaceSchemaLocation="https://sanaregistry.org/r/ndmxml_unqualified/ndmxml-2.0.0-master-2.0.xsd">
<omm id="CCSDS_OMM_VERS" version="2.0">
<header><CREATION_DATE/><ORIGINATOR/></header><body><segment><metadata><OBJECT_NAME>ORBCOMM FM20</OBJECT_NAME><OBJECT_ID>1998-046D</OBJECT_ID><CENTER_NAME>EARTH</CENTER_NAME><REF_FRAME>TEME</REF_FRAME><TIME_SYSTEM>UTC</TIME_SYSTEM><MEAN_ELEMENT_THEORY>SGP4</MEAN_ELEMENT_THEORY></metadata><data><meanElements><EPOCH>2024-05-13T12:20:02.857344</EPOCH><MEAN_MOTION>14.35232764</MEAN_MOTION><ECCENTRICITY>.0001119</ECCENTRICITY><INCLINATION>44.9937</INCLINATION><RA_OF_ASC_NODE>271.1540</RA_OF_ASC_NODE><ARG_OF_PERICENTER>212.9811</ARG_OF_PERICENTER><MEAN_ANOMALY>147.0967</MEAN_ANOMALY></meanElements><tleParameters><EPHEMERIS_TYPE>0</EPHEMERIS_TYPE><CLASSIFICATION_TYPE>U</CLASSIFICATION_TYPE><NORAD_CAT_ID>25416</NORAD_CAT_ID><ELEMENT_SET_NO>999</ELEMENT_SET_NO><REV_AT_EPOCH>34680</REV_AT_EPOCH><BSTAR>.11253E-2</BSTAR><MEAN_MOTION_DOT>.3109E-4</MEAN_MOTION_DOT><MEAN_MOTION_DDOT>0</MEAN_MOTION_DDOT></tleParameters></data></segment></body></omm>
<omm id="CCSDS_OMM_VERS" version="2.0">
<header><CREATION_DATE/><ORIGINATOR/></header><body><segment><metadata><OBJECT_NAME>ORBCOMM FM16</OBJECT_NAME><OBJECT_ID>1998-046E</OBJECT_ID><CENTER_NAME>EARTH</CENTER_NAME><REF_FRAME>TEME</REF_FRAME><TIME_SYSTEM>UTC</TIME_SYSTEM><MEAN_ELEMENT_THEORY>SGP4</MEAN_ELEMENT_THEORY></metadata><data><meanElements><EPOCH>2024-05-13T12:57:45.866880</EPOCH><MEAN_MOTION>14.36220462</MEAN_MOTION><ECCENTRICITY>.0002948</ECCENTRICITY><INCLINATION>44.9938</INCLINATION><RA_OF_ASC_NODE>266.7772</RA_OF_ASC_NODE><ARG_OF_PERICENTER>110.7147</ARG_OF_PERICENTER><MEAN_ANOMALY>249.4016</MEAN_ANOMALY></meanElements><tleParameters><EPHEMERIS_TYPE>0</EPHEMERIS_TYPE><CLASSIFICATION_TYPE>U</CLASSIFICATION_TYPE><NORAD_CAT_ID>25417</NORAD_CAT_ID><ELEMENT_SET_NO>999</ELEMENT_SET_NO><REV_AT_EPOCH>34674</REV_AT_EPOCH><BSTAR>.13642E-2</BSTAR><MEAN_MOTION_DOT>.3878E-4</MEAN_MOTION_DOT><MEAN_MOTION_DDOT>0</MEAN_MOTION_DDOT></tleParameters></data></segment></body></omm>
<omm id="CCSDS_OMM_VERS" version="2.0">
<header><CREATION_DATE/><ORIGINATOR/></header><body><segment><metadata><OBJECT_NAME>ORBCOMM FM15</OBJECT_NAME><OBJECT_ID>1998-046F</OBJECT_ID><CENTER_NAME>EARTH</CENTER_NAME><REF_FRAME>TEME</REF_FRAME><TIME_SYSTEM>UTC</TIME_SYSTEM><MEAN_ELEMENT_THEORY>SGP4</MEAN_ELEMENT_THEORY></metadata><data><meanElements><EPOCH>2024-05-13T11:56:03.220800</EPOCH><MEAN_MOTION>14.35944108</MEAN_MOTION><ECCENTRICITY>.0002713</ECCENTRICITY><INCLINATION>44.9967</INCLINATION><RA_OF_ASC_NODE>271.0461</RA_OF_ASC_NODE><ARG_OF_PERICENTER>116.0665</ARG_OF_PERICENTER><MEAN_ANOMALY>244.0461</MEAN_ANOMALY></meanElements><tleParameters><EPHEMERIS_TYPE>0</EPHEMERIS_TYPE><CLASSIFICATION_TYPE>U</CLASSIFICATION_TYPE><NORAD_CAT_ID>25418</NORAD_CAT_ID><ELEMENT_SET_NO>999</ELEMENT_SET_NO><REV_AT_EPOCH>34674</REV_AT_EPOCH><BSTAR>.11822E-2</BSTAR><MEAN_MOTION_DOT>.3322E-4</MEAN_MOTION_DOT><MEAN_MOTION_DDOT>0</MEAN_MOTION_DDOT></tleParameters></data></segment></body></omm>
<omm id="CCSDS_OMM_VERS" version="2.0">
<header><CREATION_DATE/><ORIGINATOR/></header><body><segment><metadata><OBJECT_NAME>ORBCOMM FM14</OBJECT_NAME><OBJECT_ID>1998-046G</OBJECT_ID><CENTER_NAME>EARTH</CENTER_NAME><REF_FRAME>TEME</REF_FRAME><TIME_SYSTEM>UTC</TIME_SYSTEM><MEAN_ELEMENT_THEORY>SGP4</MEAN_ELEMENT_THEORY></metadata><data><meanElements><EPOCH>2024-05-13T11:21:59.088384</EPOCH><MEAN_MOTION>14.36113876</MEAN_MOTION><ECCENTRICITY>.0001364</ECCENTRICITY><INCLINATION>44.9956</INCLINATION><RA_OF_ASC_NODE>270.2688</RA_OF_ASC_NODE><ARG_OF_PERICENTER>119.7250</ARG_OF_PERICENTER><MEAN_ANOMALY>351.7819</MEAN_ANOMALY></meanElements><tleParameters><EPHEMERIS_TYPE>0</EPHEMERIS_TYPE><CLASSIFICATION_TYPE>U</CLASSIFICATION_TYPE><NORAD_CAT_ID>25419</NORAD_CAT_ID><ELEMENT_SET_NO>999</ELEMENT_SET_NO><REV_AT_EPOCH>34669</REV_AT_EPOCH><BSTAR>.1363E-2</BSTAR><MEAN_MOTION_DOT>.3866E-4</MEAN_MOTION_DOT><MEAN_MOTION_DDOT>0</MEAN_MOTION_DDOT></tleParameters></data></segment></body></omm>
<omm id="CCSDS_OMM_VERS" version="2.0">
<header><CREATION_DATE/><ORIGINATOR/></header><body><segment><metadata><OBJECT_NAME>ORBCOMM FM13</OBJECT_NAME><OBJECT_ID>1998-046H</OBJECT_ID><CENTER_NAME>EARTH</CENTER_NAME><REF_FRAME>TEME</REF_FRAME><TIME_SYSTEM>UTC</TIME_SYSTEM><MEAN_ELEMENT_THEORY>SGP4</MEAN_ELEMENT_THEORY></metadata><data><meanElements><EPOCH>2024-05-13T11:58:56.484768</EPOCH><MEAN_MOTION>14.35392074</MEAN_MOTION><ECCENTRICITY>.0003404</ECCENTRICITY><INCLINATION>44.9969</INCLINATION><RA_OF_ASC_NODE>275.0360</RA_OF_ASC_NODE><ARG_OF_PERICENTER>83.8878</ARG_OF_PERICENTER><MEAN_ANOMALY>276.2357</MEAN_ANOMALY></meanElements><tleParameters><EPHEMERIS_TYPE>0</EPHEMERIS_TYPE><CLASSIFICATION_TYPE>U</CLASSIFICATION_TYPE><NORAD_CAT_ID>25420</NORAD_CAT_ID><ELEMENT_SET_NO>999</ELEMENT_SET_NO><REV_AT_EPOCH>34576</REV_AT_EPOCH><BSTAR>.12554E-2</BSTAR><MEAN_MOTION_DOT>.3497E-4</MEAN_MOTION_DOT><MEAN_MOTION_DDOT>0</MEAN_MOTION_DDOT></tleParameters></data></segment></body></omm>
<omm id="CCSDS_OMM_VERS" version="2.0">
<header><CREATION_DATE/><ORIGINATOR/></header><body><segment><metadata><OBJECT_NAME>ORBCOMM FM21</OBJECT_NAME><OBJECT_ID>1998-053A</OBJECT_ID><CENTER_NAME>EARTH</CENTER_NAME><REF_FRAME>TEME</REF_FRAME><TIME_SYSTEM>UTC</TIME_SYSTEM><MEAN_ELEMENT_THEORY>SGP4</MEAN_ELEMENT_THEORY></metadata><data><meanElements><EPOCH>2024-05-13T07:27:33.720480</EPOCH><MEAN_MOTION>14.35319585</MEAN_MOTION><ECCENTRICITY>.0000911</ECCENTRICITY><INCLINATION>45.0092</INCLINATION><RA_OF_ASC_NODE>0.2475</RA_OF_ASC_NODE><ARG_OF_PERICENTER>31.9998</ARG_OF_PERICENTER><MEAN_ANOMALY>328.0904</MEAN_ANOMALY></meanElements><tleParameters><EPHEMERIS_TYPE>0</EPHEMERIS_TYPE><CLASSIFICATION_TYPE>U</CLASSIFICATION_TYPE><NORAD_CAT_ID>25475</NORAD_CAT_ID><ELEMENT_SET_NO>999</ELEMENT_SET_NO><REV_AT_EPOCH>33975</REV_AT_EPOCH><BSTAR>.12757E-2</BSTAR><MEAN_MOTION_DOT>.355E-4</MEAN_MOTION_DOT><MEAN_MOTION_DDOT>0</MEAN_MOTION_DDOT></tleParameters></data></segment></body></omm>
<omm id="CCSDS_OMM_VERS" version="2.0">
<header><CREATION_DATE/><ORIGINATOR/></header><body><segment><metadata><OBJECT_NAME>ORBCOMM FM22</OBJECT_NAME><OBJECT_ID>1998-053B</OBJECT_ID><CENTER_NAME>EARTH</CENTER_NAME><REF_FRAME>TEME</REF_FRAME><TIME_SYSTEM>UTC</TIME_SYSTEM><MEAN_ELEMENT_THEORY>SGP4</MEAN_ELEMENT_THEORY></metadata><data><meanElements><EPOCH>2024-05-13T08:34:02.474976</EPOCH><MEAN_MOTION>14.35849413</MEAN_MOTION><ECCENTRICITY>.0002404</ECCENTRICITY><INCLINATION>45.0087</INCLINATION><RA_OF_ASC_NODE>357.3040</RA_OF_ASC_NODE><ARG_OF_PERICENTER>19.8078</ARG_OF_PERICENTER><MEAN_ANOMALY>340.2862</MEAN_ANOMALY></meanElements><tleParameters><EPHEMERIS_TYPE>0</EPHEMERIS_TYPE><CLASSIFICATION_TYPE>U</CLASSIFICATION_TYPE><NORAD_CAT_ID>25476</NORAD_CAT_ID><ELEMENT_SET_NO>999</ELEMENT_SET_NO><REV_AT_EPOCH>33975</REV_AT_EPOCH><BSTAR>.13341E-2</BSTAR><MEAN_MOTION_DOT>.376E-4</MEAN_MOTION_DOT><MEAN_MOTION_DDOT>0</MEAN_MOTION_DDOT></tleParameters></data></segment></body></omm>
<omm id="CCSDS_OMM_VERS" version="2.0">
<header><CREATION_DATE/><ORIGINATOR/></header><body><segment><metadata><OBJECT_NAME>ORBCOMM FM23</OBJECT_NAME><OBJECT_ID>1998-053C</OBJECT_ID><CENTER_NAME>EARTH</CENTER_NAME><REF_FRAME>TEME</REF_FRAME><TIME_SYSTEM>UTC</TIME_SYSTEM><MEAN_ELEMENT_THEORY>SGP4</MEAN_ELEMENT_THEORY></metadata><data><meanElements><EPOCH>2024-05-13T14:49:00.228864</EPOCH><MEAN_MOTION>14.35367775</MEAN_MOTION><ECCENTRICITY>.0001857</ECCENTRICITY><INCLINATION>45.0092</INCLINATION><RA_OF_ASC_NODE>1.2259</RA_OF_ASC_NODE><ARG_OF_PERICENTER>18.2171</ARG_OF_PERICENTER><MEAN_ANOMALY>341.8742</MEAN_ANOMALY></meanElements><tleParameters><EPHEMERIS_TYPE>0</EPHEMERIS_TYPE><CLASSIFICATION_TYPE>U</CLASSIFICATION_TYPE><NORAD_CAT_ID>25477</NORAD_CAT_ID><ELEMENT_SET_NO>999</ELEMENT_SET_NO><REV_AT_EPOCH>33994</REV_AT_EPOCH><BSTAR>.11432E-2</BSTAR><MEAN_MOTION_DOT>.317E-4</MEAN_MOTION_DOT><MEAN_MOTION_DDOT>0</MEAN_MOTION_DDOT></tleParameters></data></segment></body></omm>

</ndm>
