ORBCOMM FM20            
1 25416U 98046D   24134.51392196  .00003109  00000+0  11253-2 0  9991
2 25416  44.9937 271.1540 0001119 212.9811 147.0967 14.35232764346804
ORBCOMM FM16            
1 25417U 98046E   24134.54011420  .00003878  00000+0  13642-2 0  9990
2 25417  44.9938 266.7772 0002948 110.7147 249.4016 14.36220462346749
ORBCOMM FM15            
1 25418U 98046F   24134.49725950  .00003322  00000+0  11822-2 0  9997
2 25418  44.9967 271.0461 0002713 116.0665 244.0461 14.35944108346744
ORBCOMM FM14            
1 25419U 98046G   24134.47360056  .00003866  00000+0  13630-2 0  9990
2 25419  44.9956 270.2688 0001364 119.7250 351.7819 14.36113876346694
ORBCOMM FM13            
1 25420U 98046H   24134.49926487  .00003497  00000+0  12554-2 0  9994
2 25420  44.9969 275.0360 0003404  83.8878 276.2357 14.35392074345767
ORBCOMM FM21            
1 25475U 98053A   24134.31080695  .00003550  00000+0  12757-2 0  9990
2 25475  45.0092   0.2475 0000911  31.9998 328.0904 14.35319585339750
ORBCOMM FM22            
1 25476U 98053B   24134.35697309  .00003760  00000+0  13341-2 0  9994
2 25476  45.0087 357.3040 0002404  19.8078 340.2862 14.35849413339759
ORBCOMM FM23            
1 25477U 98053C   24134.61736376  .00003170  00000+0  11432-2 0  9996
2 25477  45.0092   1.2259 0001857  18.2171 341.8742 14.35367775339942
